     2.100          NAVIGATION                              RINEX VERSION / TYPE
fic2rin                                 11/27/2012 00:31:15 PGM / RUN BY / DATE
                                                            END OF HEADER
15 12 11 26 20  0  0.0 -.100644305348D-03 -.102318153949D-11  .000000000000D+00
     .960000000000D+02  .100156250000D+03  .505128183474D-08 -.740365870067D-01
     .508688390255D-05  .498787290417D-02  .372156500816D-05  .515367253304D+04
     .158400000000D+06  .465661287308D-07 -.242027440116D+01  .353902578354D-07
     .943282352159D+00  .296781250000D+03  .636215845858D-01 -.853249826994D-08
     .125362364703D-09  .100000000000D+01  .171600000000D+04  .000000000000D+00
     .340000000000D+01  .000000000000D+00 -.102445483208D-07  .960000000000D+02
     .151206000000D+06  .400000000000D+01
16 12 11 26 20  0  0.0 -.250088982284D-03 -.454747350886D-12  .000000000000D+00
     .690000000000D+02 -.701562500000D+02  .359336396375D-08  .148646572947D+01
    -.351294875145D-05  .660056527704D-02  .113211572170D-04  .515379709053D+04
     .158400000000D+06 -.689178705215D-07 -.253532264134D+00  .782310962677D-07
     .983164471649D+00  .172781250000D+03  .242013156477D-01 -.748174021594D-08
     .151077721565D-09  .100000000000D+01  .171600000000D+04  .000000000000D+00
     .240000000000D+01  .000000000000D+00 -.977888703346D-08  .690000000000D+02
     .151206000000D+06  .400000000000D+01
17 12 11 26 20  0  0.0  .749705359340D-04 -.352429196937D-11  .000000000000D+00
     .410000000000D+02  .235000000000D+02  .474448334106D-08  .571216629854D+00
     .113248825073D-05  .777996028773D-02  .685267150402D-05  .515375814629D+04
     .158400000000D+06 -.782310962677D-07  .784669358091D+00  .763684511185D-07
     .963971521877D+00  .249937500000D+03 -.228529130694D+01 -.813748181592D-08
     .474305471012D-09  .100000000000D+01  .171600000000D+04  .000000000000D+00
     .240000000000D+01  .000000000000D+00 -.107102096081D-07  .410000000000D+02
     .151206000000D+06  .400000000000D+01
18 12 11 26 20  0  0.0  .226525589824D-03  .181898940355D-11  .000000000000D+00
     .300000000000D+02  .540000000000D+02  .497270713321D-08  .203957378587D+01
     .264868140221D-05  .136101285461D-01  .109020620584D-04  .515375513649D+04
     .158400000000D+06 -.162050127983D-06  .284613430131D+01 -.320374965668D-06
     .928787775922D+00  .152937500000D+03 -.213640342800D+01 -.805176395972D-08
    -.221437795202D-09  .100000000000D+01  .171600000000D+04  .000000000000D+00
     .240000000000D+01  .000000000000D+00 -.107102096081D-07  .300000000000D+02
     .151206000000D+06  .400000000000D+01
19 12 11 26 20  0  0.0 -.325709581375D-03 -.341060513165D-11  .000000000000D+00
     .790000000000D+02  .180937500000D+02  .485234497679D-08 -.201235636032D+00
     .103563070297D-05  .868932018057D-02  .620633363724D-05  .515363356209D+04
     .158400000000D+06  .122934579849D-06  .837154860620D+00  .372529029846D-07
     .961224387014D+00  .259406250000D+03  .272083262046D+00 -.823927177017D-08
     .477162732886D-09  .100000000000D+01  .171600000000D+04  .000000000000D+00
     .240000000000D+01  .000000000000D+00 -.144354999065D-07  .790000000000D+02
     .151206000000D+06  .400000000000D+01
20 12 11 26 20  0  0.0  .745654106140D-04  .113686837722D-11  .000000000000D+00
     .800000000000D+02  .655625000000D+02  .490627579465D-08  .256103130974D+01
     .327080488205D-05  .531549996231D-02  .113174319267D-04  .515359981537D+04
     .158400000000D+06  .111758708954D-07  .279256864590D+01 -.100582838058D-06
     .929371222762D+00  .141156250000D+03  .127603160395D+01 -.802354849872D-08
    -.327870799992D-09  .100000000000D+01  .171600000000D+04  .000000000000D+00
     .240000000000D+01  .000000000000D+00 -.791624188423D-08  .800000000000D+02
     .151206000000D+06  .400000000000D+01
22 12 11 26 20  0  0.0  .152127817273D-03  .909494701773D-12  .000000000000D+00
     .106000000000D+03  .560625000000D+02  .515700052406D-08  .133111463895D+01
     .295974314213D-05  .617275014520D-02  .106804072857D-04  .515367725372D+04
     .158400000000D+06 -.156462192535D-06  .284912786326D+01  .745058059692D-08
     .926523910194D+00  .158156250000D+03 -.201679066397D+01 -.828534511788D-08
    -.237152735506D-09  .100000000000D+01  .171600000000D+04  .000000000000D+00
     .340000000000D+01  .000000000000D+00 -.172294676304D-07  .106000000000D+03
     .151206000000D+06  .400000000000D+01
23 12 11 26 20  0  0.0  .140011776239D-03 -.386535248253D-11  .000000000000D+00
     .510000000000D+02  .978125000000D+02  .469376694280D-08 -.582375792369D+00
     .500120222569D-05  .813259719871D-02  .306963920593D-05  .515378704834D+04
     .158400000000D+06  .163912773132D-06 -.238182579363D+01 -.186264514923D-07
     .958093888616D+00  .318468750000D+03 -.291790875907D+01 -.843820862812D-08
     .156792245312D-09  .100000000000D+01  .171600000000D+04  .000000000000D+00
     .240000000000D+01  .000000000000D+00 -.204890966415D-07  .510000000000D+02
     .151206000000D+06  .400000000000D+01
24 12 11 26 20  0  0.0  .334996730089D-05 -.568434188608D-12  .000000000000D+00
     .790000000000D+02 -.816875000000D+02  .460054877418D-08 -.755660090493D+00
    -.416673719883D-05  .223938724957D-03  .260025262833D-05  .515371950722D+04
     .158400000000D+06 -.298023223877D-07 -.135475289645D+01 -.875443220139D-07
     .959188043084D+00  .331343750000D+03 -.425129558775D+00 -.828748806429D-08
    -.303941231801D-09  .100000000000D+01  .171600000000D+04  .000000000000D+00
     .340000000000D+01  .000000000000D+00  .465661287308D-08  .790000000000D+02
     .151206000000D+06  .400000000000D+01
25 12 11 26 20  0  0.0  .531789846718D-04  .204636307899D-11  .000000000000D+00
     .740000000000D+02 -.711250000000D+02  .384908890143D-08  .269182807370D+01
    -.362470746040D-05  .185846223030D-02  .105090439320D-04  .515363267326D+04
     .158400000000D+06  .111758708954D-07 -.307967677004D+00 -.428408384323D-07
     .971231454729D+00  .182468750000D+03  .670501045586D+00 -.765460455929D-08
     .208222959036D-09  .100000000000D+01  .171600000000D+04  .000000000000D+00
     .240000000000D+01  .000000000000D+00  .512227416039D-08  .740000000000D+02
     .151206000000D+06  .400000000000D+01
26 12 11 26 20  0  0.0 -.196000095457D-03  .136424205266D-10  .000000000000D+00
     .420000000000D+02  .861250000000D+02  .440161191623D-08 -.733836794997D+00
     .478886067867D-05  .208742745453D-01  .330433249474D-05  .515365687752D+04
     .158400000000D+06 -.208616256714D-06 -.230511825176D+01  .314787030220D-06
     .981215153790D+00  .327218750000D+03  .121213275104D+01 -.850571143988D-08
     .152506352502D-09  .100000000000D+01  .171600000000D+04  .000000000000D+00
     .240000000000D+01  .000000000000D+00 -.605359673500D-08  .420000000000D+02
     .151206000000D+06  .400000000000D+01
27 12 11 26 20  0  0.0 -.210066791624D-03  .329691829393D-11  .000000000000D+00
     .450000000000D+02 -.682187500000D+02  .511914180423D-08  .136076001552D+01
    -.357627868652D-05  .563051539939D-02  .108163803816D-04  .515361215782D+04
     .158400000000D+06 -.726431608200D-07 -.292208956682D+00 -.111758708954D-07
     .976109280035D+00  .179781250000D+03  .869665940094D+00 -.768031991615D-08
     .135362781260D-09  .100000000000D+01  .171600000000D+04  .000000000000D+00
     .240000000000D+01  .630000000000D+02 -.190921127796D-07  .450000000000D+02
     .151206000000D+06  .400000000000D+01
28 12 11 26 20  0  0.0  .208376441151D-03  .352429196937D-11  .000000000000D+00
     .350000000000D+02 -.861250000000D+02  .367229582300D-08  .127341077744D+01
    -.450946390629D-05  .183942964068D-01  .115931034088D-04  .515364394760D+04
     .158400000000D+06 -.361353158951D-06 -.247057119538D+00 -.193715095520D-06
     .981566208778D+00  .171906250000D+03 -.181078154234D+01 -.774996567432D-08
     .219652006531D-09  .100000000000D+01  .171600000000D+04  .000000000000D+00
     .240000000000D+01  .000000000000D+00 -.107102096081D-07  .350000000000D+02
     .151206000000D+06  .400000000000D+01
29 12 11 26 20  0  0.0  .381225720048D-03  .397903932026D-11  .000000000000D+00
     .240000000000D+02  .235000000000D+02  .462304971143D-08 -.287450955484D+01
     .114738941193D-05  .175957451575D-02  .650063157082D-05  .515373857689D+04
     .158400000000D+06 -.745058059692D-08  .793343928336D+00  .614672899246D-07
     .964552486146D+00  .252437500000D+03 -.109911565705D+01 -.799247577584D-08
     .534665128092D-09  .100000000000D+01  .171600000000D+04  .000000000000D+00
     .240000000000D+01  .000000000000D+00 -.931322574615D-08  .240000000000D+02
     .151206000000D+06  .400000000000D+01
30 12 11 26 20  0  0.0 -.305493827909D-03  .140971678775D-10  .000000000000D+00
     .570000000000D+02 -.804375000000D+02  .421088968617D-08  .448372886908D+00
    -.423379242420D-05  .109599087154D-01  .104121863842D-04  .515374965668D+04
     .158400000000D+06 -.128522515297D-06 -.400486378962D+00 -.143423676491D-06
     .962327731533D+00  .183875000000D+03  .161518686430D+01 -.798318967475D-08
     .407159816984D-10  .100000000000D+01  .171600000000D+04  .000000000000D+00
     .965000000000D+01  .000000000000D+00 -.465661287308D-08  .570000000000D+02
     .151206000000D+06  .400000000000D+01
31 12 11 26 20  0  0.0  .288993585855D-03  .216004991671D-11  .000000000000D+00
     .850000000000D+02 -.852500000000D+02  .417981696330D-08 -.225243236749D+01
    -.432319939137D-05  .804151955526D-02  .346265733242D-05  .515377263641D+04
     .158400000000D+06 -.707805156708D-07 -.132551268529D+01  .156462192535D-06
     .980611918057D+00  .325000000000D+03 -.844699448071D+00 -.803604901941D-08
    -.306798493674D-09  .100000000000D+01  .171600000000D+04  .000000000000D+00
     .340000000000D+01  .000000000000D+00 -.135041773319D-07  .850000000000D+02
     .151206000000D+06  .400000000000D+01
